COMMENT,ORIGINATOR,NORAD_CAT_ID,OBJECT_NAME,OBJECT_TYPE,CLASSIFICATION_TYPE,INTLDES,EPOCH,EPOCH_MICROSECONDS,MEAN_MOTION,ECCENTRICITY,INCLINATION,RA_OF_ASC_NODE,ARG_OF_PERICENTER,MEAN_ANOMALY,EPHEMERIS_TYPE,ELEMENT_SET_NO,REV_AT_EPOCH,BSTAR,MEAN_MOTION_DOT,MEAN_MOTION_DDOT,FILE,TLE_LINE0,TLE_LINE1,TLE_LINE2,OBJECT_ID,OBJECT_NUMBER,SEMIMAJOR_AXIS,PERIOD,APOGEE,PERIGEE,DECAYED,date
GENERATED VIA SPACETRACK.ORG API,18 SPCS,48884,SPACEBEE-101,PAYLOAD,U,21059F,2023/2/23 2:31,444544,15.2304372,0.0007713,97.5794,188.8214,311.9207,48.1371,0,999,9196,0.0012149,0.0002864,0,3825927,0 SPACEBEE-101,1 48884U 21059F   23054.10513246  .00028640  00000-0  12149-2 0  9994,2 48884  97.5794 188.8214 0007713 311.9207  48.1371 15.23043720 91964,2021-059F,48884,6874.803,94.548,501.971,491.366,0,2023/4/26
GENERATED VIA SPACETRACK.ORG API,18 SPCS,48884,SPACEBEE-101,PAYLOAD,U,21059F,2023/2/23 8:49,186560,15.23061827,0.0007721,97.5794,189.0866,311.124,48.9329,0,999,9200,0.0013203,0.00031158,0,3828819,0 SPACEBEE-101,1 48884U 21059F   23054.36793040  .00031158  00000-0  13203-2 0  9994,2 48884  97.5794 189.0866 0007721 311.1240  48.9329 15.23061827 92003,2021-059F,48884,6874.749,94.546,501.922,491.306,0,2023/4/27
GENERATED VIA SPACETRACK.ORG API,18 SPCS,48884,SPACEBEE-101,PAYLOAD,U,21059F,2023/2/23 19:52,682560,15.230868,0.0007644,97.5792,189.5502,309.2429,50.8128,0,999,9207,0.0011459,0.00027038,0,3830532,0 SPACEBEE-101,1 48884U 21059F   23054.82782040  .00027038  00000-0  11459-2 0  9996,2 48884  97.5792 189.5502 0007644 309.2429  50.8128 15.23086800 92078,2021-059F,48884,6874.673,94.545,501.793,491.283,0,2023/4/28
GENERATED VIA SPACETRACK.ORG API,18 SPCS,48884,SPACEBEE-101,PAYLOAD,U,21059F,2023/2/24 8:28,627808,15.23120242,0.0007699,97.5791,190.0811,307.3982,52.6553,0,999,9215,0.0012708,0.00030035,0,3832252,0 SPACEBEE-101,1 48884U 21059F   23055.35339847  .00030035  00000-0  12708-2 0  9997,2 48884  97.5791 190.0811 0007699 307.3982  52.6553 15.23120242 92150,2021-059F,48884,6874.573,94.543,501.731,491.145,0,2023/4/29
GENERATED VIA SPACETRACK.ORG API,18 SPCS,48884,SPACEBEE-101,PAYLOAD,U,21059F,2023/2/24 8:28,627808,15.23120242,0.0007699,97.5791,190.0811,307.3982,52.6553,0,999,9215,0.0012708,0.00030035,0,3832867,0 SPACEBEE-101,1 48884U 21059F   23055.35339847  .00030035  00000-0  12708-2 0  9997,2 48884  97.5791 190.0811 0007699 307.3982  52.6553 15.23120242 92150,2021-059F,48884,6874.573,94.543,501.731,491.145,0,2023/4/30
GENERATED VIA SPACETRACK.ORG API,18 SPCS,48884,SPACEBEE-101,PAYLOAD,U,21059F,2023/2/24 19:31,699936,15.2313919,0.0007683,97.579,190.545,305.2403,54.8114,0,999,9222,0.00092907,0.00021927,0,3835059,0 SPACEBEE-101,1 48884U 21059F   23055.81327199  .00021927  00000-0  92907-3 0  9995,2 48884  97.5790 190.5450 0007683 305.2403  54.8114 15.23139190 92228,2021-059F,48884,6874.516,94.542,501.662,491.099,0,
GENERATED VIA SPACETRACK.ORG API,18 SPCS,48884,SPACEBEE-101,PAYLOAD,U,21059F,2023/2/25 8:07,150464,15.231665,0.0007726,97.579,191.0757,303.559,56.4908,0,999,9230,0.0010195,0.00024095,0,3836844,0 SPACEBEE-101,1 48884U 21059F   23056.33883276  .00024095  00000-0  10195-2 0  9993,2 48884  97.5790 191.0757 0007726 303.5590  56.4908 15.23166500 92303,2021-059F,48884,6874.434,94.54,501.61,490.987,0,
GENERATED VIA SPACETRACK.ORG API,18 SPCS,48884,SPACEBEE-101,PAYLOAD,U,21059F,2023/2/25 14:26,112640,15.23178652,0.0007708,97.579,191.3408,302.3802,57.6688,0,999,9234,0.0010357,0.00024489,0,3837605,0 SPACEBEE-101,1 48884U 21059F   23056.60161010  .00024489  00000-0  10357-2 0  9995,2 48884  97.5790 191.3408 0007708 302.3802  57.6688 15.23178652 92345,2021-059F,48884,6874.397,94.539,501.561,490.963,0,
GENERATED VIA SPACETRACK.ORG API,18 SPCS,48884,SPACEBEE-101,PAYLOAD,U,21059F,2023/2/25 20:44,884736,15.23194532,0.0007711,97.579,191.6061,301.3283,58.7198,0,999,9238,0.001188,0.00028128,0,3839003,0 SPACEBEE-101,1 48884U 21059F   23056.86438524  .00028128  00000-0  11880-2 0  9996,2 48884  97.5790 191.6061 0007711 301.3283  58.7198 15.23194532 92386,2021-059F,48884,6874.349,94.538,501.515,490.913,0,
GENERATED VIA SPACETRACK.ORG API,18 SPCS,48884,SPACEBEE-101,PAYLOAD,U,21059F,2023/2/26 7:46,845248,15.23224675,0.0007728,97.579,192.0706,299.9162,60.1306,0,999,9245,0.0013837,0.00032823,0,3840785,0 SPACEBEE-101,1 48884U 21059F   23057.32423432  .00032823  00000-0  13837-2 0  9991,2 48884  97.5790 192.0706 0007728 299.9162  60.1306 15.23224675 92451,2021-059F,48884,6874.259,94.536,501.436,490.811,0,
GENERATED VIA SPACETRACK.ORG API,18 SPCS,48884,SPACEBEE-101,PAYLOAD,U,21059F,2023/2/26 14:05,935648,15.23240099,0.0007709,97.5789,192.3358,299.0103,61.0361,0,999,9249,0.0013551,0.00032155,0,3841853,0 SPACEBEE-101,1 48884U 21059F   23057.58700157  .00032155  00000-0  13551-2 0  9992,2 48884  97.5789 192.3358 0007709 299.0103  61.0361 15.23240099 92493,2021-059F,48884,6874.212,94.535,501.376,490.778,0,
GENERATED VIA SPACETRACK.ORG API,18 SPCS,48884,SPACEBEE-101,PAYLOAD,U,21059F,2023/2/27 7:25,67616,15.23294826,0.0007711,97.5787,193.0657,296.7567,63.288,0,999,9260,0.0017474,0.00041605,0,3846396,0 SPACEBEE-101,1 48884U 21059F   23058.30959569  .00041605  00000-0  17474-2 0  9994,2 48884  97.5787 193.0657 0007711 296.7567  63.2880 15.23294826 92602,2021-059F,48884,6874.048,94.532,501.213,490.612,0,
GENERATED VIA SPACETRACK.ORG API,18 SPCS,48884,SPACEBEE-101,PAYLOAD,U,21059F,2023/2/27 20:02,539776,15.23345844,0.0007681,97.5787,193.5961,294.4837,65.5598,0,999,9268,0.0018948,0.0004521,0,3846965,0 SPACEBEE-101,1 48884U 21059F   23058.83509884  .00045210  00000-0  18948-2 0  9996,2 48884  97.5787 193.5961 0007681 294.4837  65.5598 15.23345844 92682,2021-059F,48884,6873.894,94.529,501.039,490.479,0,
GENERATED VIA SPACETRACK.ORG API,18 SPCS,48884,SPACEBEE-101,PAYLOAD,U,21059F,2023/2/28 8:39,622624,15.2339217,0.0007666,97.5783,194.1269,292.7541,67.2885,0,999,9276,0.001807,0.00043159,0,3847542,0 SPACEBEE-101,1 48884U 21059F   23059.36058591  .00043159  00000-0  18070-2 0  9995,2 48884  97.5783 194.1269 0007666 292.7541  67.2885 15.23392170 92763,2021-059F,48884,6873.755,94.526,500.889,490.35,0,
GENERATED VIA SPACETRACK.ORG API,18 SPCS,48884,SPACEBEE-101,PAYLOAD,U,21059F,2023/2/28 19:41,483808,15.23416913,0.0007669,97.5783,194.5912,291.0352,69.0064,0,999,9283,0.0011507,0.00027419,0,3847656,0 SPACEBEE-101,1 48884U 21059F   23059.82037597  .00027419  00000-0  11507-2 0  9998,2 48884  97.5783 194.5912 0007669 291.0352  69.0064 15.23416913 92836,2021-059F,48884,6873.68,94.524,500.817,490.274,0,
GENERATED VIA SPACETRACK.ORG API,18 SPCS,48884,SPACEBEE-101,PAYLOAD,U,21059F,2023/2/28 22:50,615072,15.2342349,0.000769,97.5782,194.7239,290.4766,69.5645,0,999,9285,0.0010925,0.00026029,0,3848034,0 SPACEBEE-101,1 48884U 21059F   23059.95174323  .00026029  00000-0  10925-2 0  9990,2 48884  97.5782 194.7239 0007690 290.4766  69.5645 15.23423490 92855,2021-059F,48884,6873.66,94.524,500.811,490.24,0,
GENERATED VIA SPACETRACK.ORG API,18 SPCS,48884,SPACEBEE-101,PAYLOAD,U,21059F,2023/3/1 8:18,409248,15.23458753,0.0007748,97.5781,195.1219,288.992,71.0476,0,999,9291,0.0014784,0.0003533,0,3848316,0 SPACEBEE-101,1 48884U 21059F   23060.34583807  .00035330  00000-0  14784-2 0  9998,2 48884  97.5781 195.1219 0007748 288.9920  71.0476 15.23458753 92912,2021-059F,48884,6873.554,94.522,500.745,490.094,0,
GENERATED VIA SPACETRACK.ORG API,18 SPCS,48884,SPACEBEE-101,PAYLOAD,U,21059F,2023/3/1 20:54,401568,15.23487482,0.000788,97.578,195.6524,287.8761,72.1616,0,999,9299,0.001174,0.00028038,0,3848834,0 SPACEBEE-101,1 48884U 21059F   23060.87128937  .00028038  00000-0  11740-2 0  9991,2 48884  97.5780 195.6524 0007880 287.8761  72.1616 15.23487482 92990,2021-059F,48884,6873.468,94.52,500.749,489.917,0,
GENERATED VIA SPACETRACK.ORG API,18 SPCS,48884,SPACEBEE-101,PAYLOAD,U,21059F,2023/3/1 22:29,215776,15.23490928,0.0007894,97.578,195.7188,287.86,72.1776,0,999,9300,0.0011652,0.00027829,0,3848938,0 SPACEBEE-101,1 48884U 21059F   23060.93697009  .00027829  00000-0  11652-2 0  9998,2 48884  97.5780 195.7188 0007894 287.8600  72.1776 15.23490928 93003,2021-059F,48884,6873.458,94.52,500.749,489.897,0,
GENERATED VIA SPACETRACK.ORG API,18 SPCS,48884,SPACEBEE-101,PAYLOAD,U,21059F,2023/3/2 18:58,253920,15.23550007,0.0007926,97.5782,196.581,284.7031,75.3327,0,999,9313,0.0014295,0.00034248,0,3849294,0 SPACEBEE-101,1 48884U 21059F   23061.79080155  .00034248  00000-0  14295-2 0  9990,2 48884  97.5782 196.5810 0007926 284.7031  75.3327 15.23550007 93132,2021-059F,48884,6873.28,94.516,500.593,489.697,0,
GENERATED VIA SPACETRACK.ORG API,18 SPCS,48884,SPACEBEE-101,PAYLOAD,U,21059F,2023/3/2 18:58,253920,15.23550007,0.0007926,97.5782,196.581,284.7031,75.3327,0,999,9313,0.0014295,0.00034248,0,3849487,0 SPACEBEE-101,1 48884U 21059F   23061.79080155  .00034248  00000-0  14295-2 0  9990,2 48884  97.5782 196.5810 0007926 284.7031  75.3327 15.23550007 93132,2021-059F,48884,6873.28,94.516,500.593,489.697,0,
GENERATED VIA SPACETRACK.ORG API,18 SPCS,48884,SPACEBEE-101,PAYLOAD,U,21059F,2023/3/3 7:35,273216,15.23596911,0.0007854,97.5789,197.1125,282.3746,77.6611,0,999,9321,0.0018347,0.00044095,0,3850078,0 SPACEBEE-101,1 48884U 21059F   23062.31621844  .00044095  00000-0  18347-2 0  9998,2 48884  97.5789 197.1125 0007854 282.3746  77.6611 15.23596911 93216,2021-059F,48884,6873.139,94.513,500.402,489.606,0,
GENERATED VIA SPACETRACK.ORG API,18 SPCS,48884,SPACEBEE-101,PAYLOAD,U,21059F,2023/3/3 7:35,273216,15.23596911,0.0007854,97.5789,197.1125,282.3746,77.6611,0,999,9321,0.0018347,0.00044095,0,3850163,0 SPACEBEE-101,1 48884U 21059F   23062.31621844  .00044095  00000-0  18347-2 0  9998,2 48884  97.5789 197.1125 0007854 282.3746  77.6611 15.23596911 93216,2021-059F,48884,6873.139,94.513,500.402,489.606,0,
